{
  "links" : {
    "next" : "https://api.nasa.gov/neo/rest/v1/neo/browse?page=28&size=20&api_key=jqAGvNAwUIBu4fl9FSOjdm3V4F7hIglRzI6pdX9d",
    "prev" : "https://api.nasa.gov/neo/rest/v1/neo/browse?page=26&size=20&api_key=jqAGvNAwUIBu4fl9FSOjdm3V4F7hIglRzI6pdX9d",
    "self" : "https://api.nasa.gov/neo/rest/v1/neo/browse?page=27&size=20&api_key=jqAGvNAwUIBu4fl9FSOjdm3V4F7hIglRzI6pdX9d"
  },
  "page" : {
    "size" : 20,
    "total_elements" : 20750,
    "total_pages" : 1038,
    "number" : 27
  },
  "near_earth_objects" : [ {
    "links" : {
      "self" : "https://api.nasa.gov/neo/rest/v1/neo/3332413?api_key=jqAGvNAwUIBu4fl9FSOjdm3V4F7hIglRzI6pdX9d"
    },
    "neo_reference_id" : "3332413",
    "name" : "(2006 JM6)",
    "designation" : "2006 JM6",
    "nasa_jpl_url" : "http://ssd.jpl.nasa.gov/sbdb.cgi?sstr=3332413",
    "absolute_magnitude_h" : 23.7,
    "estimated_diameter" : {
      "kilometers" : {
        "estimated_diameter_min" : 0.0483676488,
        "estimated_diameter_max" : 0.1081533507
      },
      "meters" : {
        "estimated_diameter_min" : 48.3676488219,
        "estimated_diameter_max" : 108.1533506775
      },
      "miles" : {
        "estimated_diameter_min" : 0.0300542543,
        "estimated_diameter_max" : 0.0672033557
      },
      "feet" : {
        "estimated_diameter_min" : 158.6865169607,
        "estimated_diameter_max" : 354.8338390368
      }
    },
    "is_potentially_hazardous_asteroid" : false,
    "close_approach_data" : [ {
      "close_approach_date" : "2006-05-14",
      "epoch_date_close_approach" : 1147590000000,
      "relative_velocity" : {
        "kilometers_per_second" : "8.0779226368",
        "kilometers_per_hour" : "29080.5214923331",
        "miles_per_hour" : "18069.5051461666"
      },
      "miss_distance" : {
        "astronomical" : "0.0485926355",
        "lunar" : "18.9025344849",
        "kilometers" : "7269354.5",
        "miles" : "4516967.5"
      },
      "orbiting_body" : "Earth"
    } ],
    "orbital_data" : {
      "orbit_id" : "9",
      "orbit_determination_date" : "2017-04-06 09:08:40",
      "first_observation_date" : "2006-05-05",
      "last_observation_date" : "2006-05-16",
      "data_arc_in_days" : 11,
      "observations_used" : 30,
      "orbit_uncertainty" : "8",
      "minimum_orbit_intersection" : ".0318139",
      "jupiter_tisserand_invariant" : "3.641",
      "epoch_osculation" : "2453862.5",
      "eccentricity" : ".4881288436833746",
      "semi_major_axis" : "2.028520118514756",
      "inclination" : "9.189591052048629",
      "ascending_node_longitude" : "42.64842187214575",
      "orbital_period" : "1055.279267438719",
      "perihelion_distance" : "1.038340938675686",
      "perihelion_argument" : "187.601467396305",
      "aphelion_distance" : "3.018699298353826",
      "perihelion_time" : "2453868.529590119513",
      "mean_anomaly" : "357.9430540237059",
      "mean_motion" : ".3411419243303817",
      "equinox" : "J2000",
      "orbit_class" : {
        "orbit_class_type" : "AMO",
        "orbit_class_range" : "1.017 AU < q (perihelion) < 1.3 AU",
        "orbit_class_description" : "Near-Earth asteroid orbits similar to that of 1221 Amor"
      }
    },
    "is_sentry_object" : false
  }, {
    "links" : {
      "self" : "https://api.nasa.gov/neo/rest/v1/neo/3333957?api_key=jqAGvNAwUIBu4fl9FSOjdm3V4F7hIglRzI6pdX9d"
    },
    "neo_reference_id" : "3333957",
    "name" : "(2006 KP21)",
    "designation" : "2006 KP21",
    "nasa_jpl_url" : "http://ssd.jpl.nasa.gov/sbdb.cgi?sstr=3333957",
    "absolute_magnitude_h" : 23.6,
    "estimated_diameter" : {
      "kilometers" : {
        "estimated_diameter_min" : 0.0506471459,
        "estimated_diameter_max" : 0.1132504611
      },
      "meters" : {
        "estimated_diameter_min" : 50.6471458835,
        "estimated_diameter_max" : 113.2504610618
      },
      "miles" : {
        "estimated_diameter_min" : 0.0314706677,
        "estimated_diameter_max" : 0.0703705522
      },
      "feet" : {
        "estimated_diameter_min" : 166.1651821003,
        "estimated_diameter_max" : 371.5566426699
      }
    },
    "is_potentially_hazardous_asteroid" : false,
    "close_approach_data" : [ {
      "close_approach_date" : "2006-04-30",
      "epoch_date_close_approach" : 1146380400000,
      "relative_velocity" : {
        "kilometers_per_second" : "11.7483754586",
        "kilometers_per_hour" : "42294.1516508466",
        "miles_per_hour" : "26279.9410632719"
      },
      "miss_distance" : {
        "astronomical" : "0.1323662019",
        "lunar" : "51.4904518127",
        "kilometers" : "19801702",
        "miles" : "12304207"
      },
      "orbiting_body" : "Earth"
    } ],
    "orbital_data" : {
      "orbit_id" : "8",
      "orbit_determination_date" : "2017-04-06 09:08:37",
      "first_observation_date" : "2006-05-23",
      "last_observation_date" : "2006-05-26",
      "data_arc_in_days" : 3,
      "observations_used" : 23,
      "orbit_uncertainty" : "9",
      "minimum_orbit_intersection" : ".0560579",
      "jupiter_tisserand_invariant" : "3.590",
      "epoch_osculation" : "2453879.5",
      "eccentricity" : ".520086883586492",
      "semi_major_axis" : "2.067256765158837",
      "inclination" : "5.042583078215843",
      "ascending_node_longitude" : "237.1016742147078",
      "orbital_period" : "1085.65055730055",
      "perihelion_distance" : ".9921036365942848",
      "perihelion_argument" : "299.8316699106298",
      "aphelion_distance" : "3.142409893723389",
      "perihelion_time" : "2453824.798712642145",
      "mean_anomaly" : "18.13885998252767",
      "mean_motion" : ".3315984112743731",
      "equinox" : "J2000",
      "orbit_class" : {
        "orbit_class_type" : "APO",
        "orbit_class_range" : "a (semi-major axis) > 1.0 AU; q (perihelion) < 1.017 AU",
        "orbit_class_description" : "Near-Earth asteroid orbits which cross the Earth’s orbit similar to that of 1862 Apollo"
      }
    },
    "is_sentry_object" : false
  }, {
    "links" : {
      "self" : "https://api.nasa.gov/neo/rest/v1/neo/3334361?api_key=jqAGvNAwUIBu4fl9FSOjdm3V4F7hIglRzI6pdX9d"
    },
    "neo_reference_id" : "3334361",
    "name" : "(2006 KS38)",
    "designation" : "2006 KS38",
    "nasa_jpl_url" : "http://ssd.jpl.nasa.gov/sbdb.cgi?sstr=3334361",
    "absolute_magnitude_h" : 23.9,
    "estimated_diameter" : {
      "kilometers" : {
        "estimated_diameter_min" : 0.04411182,
        "estimated_diameter_max" : 0.0986370281
      },
      "meters" : {
        "estimated_diameter_min" : 44.1118199997,
        "estimated_diameter_max" : 98.6370281305
      },
      "miles" : {
        "estimated_diameter_min" : 0.0274098057,
        "estimated_diameter_max" : 0.0612901888
      },
      "feet" : {
        "estimated_diameter_min" : 144.7238235278,
        "estimated_diameter_max" : 323.6123073718
      }
    },
    "is_potentially_hazardous_asteroid" : false,
    "close_approach_data" : [ {
      "close_approach_date" : "2000-12-07",
      "epoch_date_close_approach" : 976176000000,
      "relative_velocity" : {
        "kilometers_per_second" : "18.9844591386",
        "kilometers_per_hour" : "68344.0528990381",
        "miles_per_hour" : "42466.3366471829"
      },
      "miss_distance" : {
        "astronomical" : "0.17173677",
        "lunar" : "66.8056030273",
        "kilometers" : "25691456",
        "miles" : "15963931"
      },
      "orbiting_body" : "Earth"
    }, {
      "close_approach_date" : "2006-05-23",
      "epoch_date_close_approach" : 1148367600000,
      "relative_velocity" : {
        "kilometers_per_second" : "19.4022611698",
        "kilometers_per_hour" : "69848.1402113358",
        "miles_per_hour" : "43400.9180107603"
      },
      "miss_distance" : {
        "astronomical" : "0.0235916759",
        "lunar" : "9.1771621704",
        "kilometers" : "3529264.75",
        "miles" : "2192983.25"
      },
      "orbiting_body" : "Earth"
    } ],
    "orbital_data" : {
      "orbit_id" : "7",
      "orbit_determination_date" : "2017-04-06 09:08:36",
      "first_observation_date" : "2006-05-23",
      "last_observation_date" : "2006-05-26",
      "data_arc_in_days" : 3,
      "observations_used" : 34,
      "orbit_uncertainty" : "8",
      "minimum_orbit_intersection" : ".022332",
      "jupiter_tisserand_invariant" : "4.456",
      "epoch_osculation" : "2453881.5",
      "eccentricity" : ".4558495581586797",
      "semi_major_axis" : "1.430630676306377",
      "inclination" : "28.70283205169111",
      "ascending_node_longitude" : "63.49303992754054",
      "orbital_period" : "625.013972934804",
      "perihelion_distance" : ".7784783146238622",
      "perihelion_argument" : "101.0892357472059",
      "aphelion_distance" : "2.082783037988893",
      "perihelion_time" : "2453824.719136234659",
      "mean_anomaly" : "32.70504635206771",
      "mean_motion" : ".5759871228311756",
      "equinox" : "J2000",
      "orbit_class" : {
        "orbit_class_type" : "APO",
        "orbit_class_range" : "a (semi-major axis) > 1.0 AU; q (perihelion) < 1.017 AU",
        "orbit_class_description" : "Near-Earth asteroid orbits which cross the Earth’s orbit similar to that of 1862 Apollo"
      }
    },
    "is_sentry_object" : false
  } ]
}